EUTELSAT 7A             
1 28187U 04008A   25340.54238221  .00000107  00000+0  00000+0 0  9995
2 28187   5.3418  74.3171 0001516 212.1134 205.1954  1.00270360 79426
EUTELSAT 174A           
1 28924U 05052A   25340.88920811  .00000013  00000+0  00000+0 0  9990
2 28924   3.7329  78.9170 0006600 176.7552 314.3471  1.00271801 50400
EUTELSAT HOTBIRD 13B    
1 29270U 06032A   25340.89747161  .00000161  00000+0  00000+0 0  9994
2 29270   1.1649  84.4097 0003785 170.1196 177.5914  1.00273370 45379
EUTELSAT HOTBIRD 13C    
1 33459U 08065A   25340.91763493 -.00000272  00000+0  00000+0 0  9999
2 33459   2.4560  81.4802 0001452 203.0324  78.9981  1.00047881 45417
EUTELSAT 36B            
1 36101U 09065A   25340.85878299  .00000118  00000+0  00000+0 0  9999
2 36101   0.0380 351.9288 0006546 264.1189 179.4923  1.00270960 58780
EUTELSAT KA-SAT 9A      
1 37258U 10069A   25340.91017066  .00000067  00000+0  00000+0 0  9996
2 37258   0.0514 331.8311 0001620 214.1309 226.6616  1.00270024 42074
EUTELSAT 7 WEST A       
1 37816U 11051A   25340.92128329 -.00000054  00000+0  00000+0 0  9991
2 37816   0.0667  15.1624 0005940 214.1892 170.9686  1.00271826 51943
EUTELSAT 16A            
1 37836U 11057A   25340.90461594  .00000109  00000+0  00000+0 0  9991
2 37836   0.0580 355.6960 0005906 263.9968 157.9101  1.00270003  5393
